(82, 'COSMOS 2151             ', '1 21422U 91042A   23334.01361681  .00003261  00000+0  29788-3 0  9996\r\n2 21422  82.4980 161.5142 0013524 343.9956  16.0836 14.94697543760029', '21422', 0),
(83, 'SL-14 R/B               ', '1 21423U 91042B   23333.37610105  .00001009  00000+0  12850-3 0  9993\r\n2 21423  82.4927 278.9780 0019081  90.7724 269.5676 14.80490041730018', '21423', 0),
(84, 'ERS-1                   ', '1 21574U 91050A   23333.94650228  .00000549  00000+0  19429-3 0  9999\r\n2 21574  98.7612 316.3519 0033200 143.5864 216.7590 14.38307071696242', '21574', 0),
(85, 'ARIANE 40 R/B           ', '1 21610U 91050F   23334.20757902  .00001006  00000+0  32241-3 0  9993\r\n2 21610  98.3186  36.6474 0004169  75.5305 284.6347 14.41596202699554', '21610', 0),
(86, 'INTERCOSMOS 25          ', '1 21819U 91086A   23333.53100322  .00002902  00000+0  57134-3 0  9990\r\n2 21819  82.6064  90.9321 1504937 103.1244 274.1612 12.07964193396167', '21819', 0),
(87, 'SL-8 R/B                ', '1 21876U 92008B   23334.53291028  .00000058  00000+0  44205-4 0  9999\r\n2 21876  82.9259 165.0529 0033667 294.0103 123.8649 13.75782386595498', '21876', 0),
(88, 'SL-8 R/B                ', '1 21938U 92020B   23333.60833618  .00000142  00000+0  13113-3 0  9993\r\n2 21938  82.9325  50.9572 0030487  97.3513  14.8394 13.75385115586885', '21938', 0),
(89, 'COSMOS 2219             ', '1 22219U 92076A   23333.41360978  .00000386  00000+0  22851-3 0  9999\r\n2 22219  71.0608 315.4582 0017292  23.6432 336.5482 14.13809252600876', '22219', 0),
(90, 'SL-16 R/B               ', '1 22220U 92076B   23333.60068140  .00000182  00000+0  11521-3 0  9994\r\n2 22220  70.9984 138.7170 0015209 280.0820 146.0072 14.16603715604128', '22220', 0),
(91, 'COSMOS 2221             ', '1 22236U 92080A   23334.49232967  .00003534  00000+0  35776-3 0  9996\r\n2 22236  82.5062 350.7534 0017550  92.3721 267.9508 14.90596361677921', '22236', 0),
(92, 'SL-16 R/B               ', '1 22285U 92093B   23334.37185627  .00000021  00000+0  35476-4 0  9997\r\n2 22285  71.0217 307.0144 0002899 167.9895 192.1297 14.15209290595992', '22285', 0),
(93, 'COSMOS 2228             ', '1 22286U 92094A   23334.02178888  .00004086  00000+0  40963-3 0  9993\r\n2 22286  82.5179 308.8766 0019378 203.5928 156.4405 14.90999348673084', '22286', 0),
(94, 'SL-16 R/B               ', '1 22566U 93016B   23333.98169696  .00000401  00000+0  23133-3 0  9997\r\n2 22566  71.0063 159.6239 0009319 158.9279 201.2229 14.15089652584655', '22566', 0),
(95, 'COSMOS 2242             ', '1 22626U 93024A   23334.48527138  .00003897  00000+0  39342-3 0  9999\r\n2 22626  82.5198 337.1559 0017487 203.1538 156.8895 14.90728123656775', '22626', 0),
(96, 'SL-16 R/B               ', '1 22803U 93059B   23334.16208009  .00000296  00000+0  17078-3 0  9994\r\n2 22803  70.9898 322.2175 0015927  28.8134 331.3865 14.16973508562130', '22803', 0),
(97, 'ARIANE 40 R/B           ', '1 22830U 93061H   23333.81789227  .00000671  00000+0  26675-3 0  9994\r\n2 22830  98.5985  38.5862 0010389 214.0223 146.0295 14.31923192575401', '22830', 0),
(98, 'COSMOS 2278             ', '1 23087U 94023A   23333.85169006  .00000485  00000+0  27963-3 0  9993\r\n2 23087  71.0532 112.9048 0010241 227.3541 132.6719 14.14022258527593', '23087', 0),
(99, 'SL-16 R/B               ', '1 23088U 94023B   23334.45401975  .00000173  00000+0  11431-3 0  9992\r\n2 23088  71.0002  14.1920 0001824 159.9592 200.1603 14.14796547528921', '23088', 0),
(100, 'SL-16 R/B               ', '1 23343U 94074B   23333.73287569  .00001145  00000+0  16664-3 0  9996\r\n2 23343  97.8180  18.0198 0007741  49.6821  63.7349 14.77726867564660', '23343', 0),
(101, 'SL-16 R/B               ', '1 23405U 94077B   23333.34425600 -.00000169  00000+0 -61926-4 0  9994\r\n2 23405  70.9825 301.1937 0004061 309.5279  50.5485 14.15346324498592', '23405', 0),
(102, 'ERS-2                   ', '1 23560U 95021A   23333.53430350  .00141277  00000+0  14851-2 0  9992\r\n2 23560  98.5263 327.8986 0005066  89.3710 270.8126 15.63843186534800', '23560', 0),
(103, 'ARIANE 40+ R/B          ', '1 23561U 95021B   23334.18193861  .00000712  00000+0  24672-3 0  9999\r\n2 23561  98.5552  36.6097 0007947 105.2765 315.6926 14.38621770500003', '23561', 0),
(104, 'SL-16 R/B               ', '1 23705U 95058B   23333.87651634  .00000256  00000+0  15611-3 0  9997\r\n2 23705  71.0213 124.2445 0014596 300.7397  59.2288 14.15272179450595', '23705', 0),
(105, 'SL-16 R/B               ', '1 24298U 96051B   23333.88289881 -.00000055  00000+0 -35380-5 0  9997\r\n2 24298  70.8195 131.6527 0018172 279.2024  80.7041 14.12513835404592', '24298', 0),
(106, 'ORBVIEW 2 (SEASTAR)     ', '1 24883U 97037A   23333.39084361  .00000821  00000+0  30873-3 0  9993\r\n2 24883  98.7475 105.5946 0002219  14.8660 345.2589 14.34264321389259', '24883', 0),
(107, 'SL-16 R/B               ', '1 25400U 98043G   23334.45813945  .00000249  00000+0  12372-3 0  9991\r\n2 25400  98.7242 271.2320 0008781 264.3530  95.6648 14.25672152320906', '25400', 0),
(108, 'SL-16 R/B               ', '1 25407U 98045B   23333.79461503 -.00000119  00000+0 -36123-4 0  9994\r\n2 25407  71.0099 128.6180 0008981 225.9752 134.0632 14.15953672309745', '25407', 0),
(109, 'ISS (ZARYA)             ', '1 25544U 98067A   23334.68810453  .00026067  00000+0  46332-3 0  9991\r\n2 25544  51.6426 223.8583 0000911 355.2987  98.4937 15.49994401427613', '25544', 0),
(110, 'CZ-4B R/B               ', '1 25732U 99025C   23334.14308137  .00000192  00000+0  11462-3 0  9994\r\n2 25732  98.7824  16.8052 0036888 207.7886 217.5889 14.17891097270592', '25732', 0),
(111, 'OKEAN-O                 ', '1 25860U 99039A   23333.71469565  .00001793  00000+0  25627-3 0  9992\r\n2 25860  98.0671  21.1688 0001659 106.2304 253.9089 14.77920457311633', '25860', 0),
(112, 'SL-16 R/B               ', '1 25861U 99039B   23334.09149078  .00001248  00000+0  17326-3 0  9991\r\n2 25861  98.1182  13.3138 0016535  66.6173 293.6776 14.79662481314074', '25861', 0),
(113, 'DELTA 2 R/B             ', '1 25876U 99041E   23333.96243913  .00001442  00000+0  27990-3 0  9992\r\n2 25876  51.7642   8.1927 0521922  64.9028 300.5123 14.07156704245877', '25876', 0),
(114, 'HELIOS 1B               ', '1 25977U 99064A   23333.58940825  .00001989  00000+0  24709-3 0  9994\r\n2 25977  98.2692 193.2666 0000531 155.4548 204.6690 14.83791658561867', '25977', 0),
(115, 'TERRA                   ', '1 25994U 99068A   23334.47752269  .00001275  00000+0  27839-3 0  9994\r\n2 25994  98.0764  38.6042 0000573 253.8892 231.3120 14.59464704274032', '25994', 0),
(116, 'SL-16 R/B               ', '1 26070U 00006B   23333.59539262  .00000423  00000+0  24014-3 0  9998\r\n2 26070  71.0039  45.0426 0016558 358.8591   1.2491 14.15585830230936', '26070', 0),
(117, 'TITAN 4B R/B            ', '1 26474U 00047B   23334.04044553  .00004731  00000+0  37538-3 0  9997\r\n2 26474  67.9923 199.7536 0055528 251.1930 108.3186 15.00188053268001', '26474', 0),
(118, 'ENVISAT                 ', '1 27386U 02009A   23334.47677182  .00000399  00000+0  14447-3 0  9997\r\n2 27386  98.2553 297.8470 0001308  84.2147  26.7489 14.38457318139862', '27386', 0),
(119, 'IDEFIX & ARIANE 42P R/B ', '1 27422U 02021B   23334.45578655  .00000830  00000+0  33896-3 0  9994\r\n2 27422  98.5086 271.3883 0013100 110.0707 250.1887 14.29876679123420', '27422', 0),
(120, 'AQUA                    ', '1 27424U 02022A   23334.47118273  .00002639  00000+0  57684-3 0  9995\r\n2 27424  98.3072 278.4999 0001776  58.6722  75.7147 14.58616926147594', '27424', 0),
(121, 'CZ-4B R/B               ', '1 27432U 02024C   23333.60683352  .00000173  00000+0  11311-3 0  9993\r\n2 27432  99.0044   9.6780 0049796 217.8439 257.9385 14.14261003111751', '27432', 0),
(122, 'MIDORI II (ADEOS-II)    ', '1 27597U 02056A   23334.44708591  .00000936  00000+0  39431-3 0  9996\r\n2 27597  98.6686 277.2580 0000172  92.0948 268.0253 14.28106314 91723', '27597', 0),
(123, 'H-2A R/B                ', '1 27601U 02056E   23333.58719844  .00000674  00000+0  25578-3 0  9995\r\n2 27601  98.2088 315.9098 0072602 119.3201 353.7552 14.32553261 95064', '27601', 0),
(124, 'CZ-4B R/B               ', '1 28059U 03049C   23333.87723356  .00000980  00000+0  24355-3 0  9993\r\n2 28059  98.5833 285.9928 0048243 247.0649 112.5451 14.53439238 65820', '28059', 0),
(125, 'CZ-2C R/B               ', '1 28222U 04012C   23333.55030648  .00015754  00000+0  70149-3 0  9993\r\n2 28222  97.8078 333.5109 0038941  30.7632 329.5874 15.20856286 76573', '28222', 0),
(126, 'SL-16 R/B               ', '1 28353U 04021B   23333.80588886  .00000173  00000+0  11513-3 0  9997\r\n2 28353  71.0004 175.8523 0006760 236.3363 123.7115 14.14371251  5342', '28353', 0),
(127, 'CZ-4B R/B               ', '1 28415U 04035C   23333.57037719  .00008050  00000+0  45016-3 0  9996\r\n2 28415  97.4500   6.8359 0045256   0.1678 359.9560 15.12853110 53600', '28415', 0),
(128, 'CZ-2C R/B               ', '1 28480U 04046B   23333.87190044  .00000497  00000+0  20120-3 0  9990\r\n2 28480  98.1369 286.8392 0142306  91.8370 269.9116 14.26168276990041', '28480', 0),
(129, 'ARIANE 5 R/B            ', '1 28499U 04049H   23334.36939831  .00003172  00000+0  38145-3 0  9992\r\n2 28499  98.1579 103.1963 0089711 158.3903 202.1134 14.81830633 22690', '28499', 0),
(130, 'CZ-2D R/B               ', '1 28738U 05024B   23333.54345774  .00013067  00000+0  58747-3 0  9992\r\n2 28738  97.3592 330.8782 0011300 123.2282 237.0038 15.21195605 12125', '28738', 0),
(131, 'SUZAKU (ASTRO-EII)      ', '1 28773U 05025A   23334.46482198  .00023306  00000+0  67011-3 0  9997\r\n2 28773  31.3909  42.5747 0002450  45.2289 314.8563 15.34611564 16209', '28773', 0),
(132, 'ALOS (DAICHI)           ', '1 28931U 06002A   23334.48316894  .00003135  00000+0  59614-3 0  9998\r\n2 28931  98.0119 287.2893 0002378  78.4818 281.6652 14.64816504952104', '28931', 0),
